{
    "links": {
        "self": "http://www.neowsapp.com/rest/v1/neo/54051180?api_key=iIulBulltgU6a56xZRHN4H3l9WmuAYTsLGpBGhQ2"
    },
    "id": "54051180",
    "neo_reference_id": "54051180",
    "name": "(2020 QG1)",
    "designation": "2020 QG1",
    "nasa_jpl_url": "http://ssd.jpl.nasa.gov/sbdb.cgi?sstr=54051180",
    "absolute_magnitude_h": 26.813,
    "estimated_diameter": {
        "kilometers": {
            "estimated_diameter_min": 0.0115333369,
            "estimated_diameter_max": 0.0257893252
        },
        "meters": {
            "estimated_diameter_min": 11.533336853,
            "estimated_diameter_max": 25.7893252106
        },
        "miles": {
            "estimated_diameter_min": 0.0071664811,
            "estimated_diameter_max": 0.0160247388
        },
        "feet": {
            "estimated_diameter_min": 37.8390328807,
            "estimated_diameter_max": 84.610649724
        }
    },
    "is_potentially_hazardous_asteroid": false,
    "close_approach_data": [
        {
            "close_approach_date": "2020-08-04",
            "close_approach_date_full": "2020-Aug-04 23:20",
            "epoch_date_close_approach": 1596583200000,
            "relative_velocity": {
                "kilometers_per_second": "6.7985992942",
                "kilometers_per_hour": "24474.9574592563",
                "miles_per_hour": "15207.7867612806"
            },
            "miss_distance": {
                "astronomical": "0.0314000787",
                "lunar": "12.2146306143",
                "kilometers": "4697384.891352369",
                "miles": "2918819.6240219322"
            },
            "orbiting_body": "Earth"
        }
    ],
    "orbital_data": {
        "orbit_id": "2",
        "orbit_determination_date": "2020-08-20 07:00:58",
        "first_observation_date": "2020-08-15",
        "last_observation_date": "2020-08-19",
        "data_arc_in_days": 4,
        "observations_used": 17,
        "orbit_uncertainty": "8",
        "minimum_orbit_intersection": ".0178041",
        "jupiter_tisserand_invariant": "3.829",
        "epoch_osculation": "2459079.5",
        "eccentricity": ".4557385299919028",
        "semi_major_axis": "1.887498221753563",
        "inclination": ".885543876489612",
        "ascending_node_longitude": "358.9669054743326",
        "orbital_period": "947.1706968755478",
        "perihelion_distance": "1.027292556809264",
        "perihelion_argument": "297.3659597048007",
        "aphelion_distance": "2.747703886697863",
        "perihelion_time": "2459052.762619794492",
        "mean_anomaly": "10.16232544538654",
        "mean_motion": ".3800793259203855",
        "equinox": "J2000",
        "orbit_class": {
            "orbit_class_type": "AMO",
            "orbit_class_description": "Near-Earth asteroid orbits similar to that of 1221 Amor",
            "orbit_class_range": "1.017 AU < q (perihelion) < 1.3 AU"
        }
    },
    "is_sentry_object": false
}